# Made by eph2tle, compiled Jan  4 2022 21:43:10
# Run at Thu Jan 13 21:32:08 2022
#
#    The following TLEs (Two-Line Elements) were generated by fitting
# a numerically-integrated ephemeris,  based on the orbit given below,
# to the SDP4/SGP4 models.  Each TLE is good for the interval between
# its epoch and the epoch of the subsequent TLE (usually one day).
# The maximum deviation between the numerically integrated ephemerides
# and the TLE-based ephemeris, in kilometers,  is given for each TLE
# as the "worst residual".
#
#    This fitting is done using the 'eph2tle' code packaged with Find_Orb.
# The code has details on how the TLEs were computed :
#
#    https://github.com/Bill-Gray/find_orb/eph2tle.cpp
#
#    Be warned:  the error given is that between the numerically
# integrated ephems and the TLE model.  There will usually be at
# least some additional difference between the ephems and the actual
# motion of the satellite,  especially if the ephemerides are based
# on a short arc.  If the following orbital elements say something
# like "[based on] 10 observations 2015 Jan. 1-13",  and the TLEs
# are for 2015 May,  the extrapolation may be tenuous at best.  If
# your application requires a specific level of accuracy,  you may
# want to contact me;  I can give you some idea as to the fit of the
# underlying data (and possibly TLEs based on newer data).
#
#   You can usually find the underlying observational data,  and the
# fitted orbit,  residuals,  ephemerides,  and sometimes some comments
# about the object,  among the pages listed at
#
#    https://www.projectpluto.com/pluto/mpecs/pseudo.htm
#
#    Also,  if you use a TLE outside the "correct" time range (between
# its MJD and that of the next TLE),  all bets are off.  I've carefully
# computed and minimized the worst error over the "correct" time frame,
# but the ephemeris may (or may not) diverge wildly outside of it.
#
# Ephem range: 59580.000000 59945.000000 1.000000
# Created Thu Jan 13 21:31:58 2022
# Ephemeris start:  1 Jan 2022  0:00:00
# Ephemeris end:    1 Jan 2023  0:00:00
# Times are all TDT
# Positions/velocities are in ecliptic J2000
# Orbital elements:  1970-027C = NORAD 50000 = Vela 6 booster
#    Perigee 2021 Oct 28.3951999 +/- 5.16e-6 TT =  9:29:05.26 (JD 2459515.8951999)
# A1: 1.34e-9 +/- 3.57e-11   A2: -5.85e-11 +/- 3.69e-11
# A3: 5.65e-11 +/- 2.56e-11 AU/day^2 [1/r^2]
# Epoch 2021 Oct 29.0 TT = JDT 2459516.5                        Find_Orb
# M  96.4245437574 +/- 0.0008         (J2000 ecliptic)
# n 159.4320767081 +/- 5.09e-6        Peri.   64.0243439 +/- 0.00018
# a 72703.118119 +/- 0.00155          Node   184.1095516 +/- 0.00011
# e   0.802186866 +/- 1.23e-6         Incl.   28.3525533 +/- 0.000024
# P3251.48m/2.258d           H 29.5   G  0.15   U  4.6
# q 14381.631628 +/- 0.0894    Q 131024.60460 +/- 0.0888
# 88 of 110 observations 2021 Aug. 18-2022 Jan. 9; mean residual 0".749
#
# 1 NoradU COSPAR   Epoch.epoch     dn/dt/2  d2n/dt2/6 BSTAR    T El# C
# 2 NoradU Inclina RAAscNode Eccent  ArgPeri MeanAno  MeanMotion Rev# C

# Worst residual: 7.63 km
# MJD 59580.000000 (2022 Jan  1  0:00)
1970-027C = NORAD 50000 = Vela 6 booster
1 50000U 70027C   22001.49919926  .00000000  00000-0  00000-0 0 14755
2 50000 004.0734 175.1145 8047872 074.2611 297.4860 00.44281946    00

# Worst residual: 10.97 km
# MJD 59581.000000 (2022 Jan  2  0:00)
1970-027C = NORAD 50000 = Vela 6 booster
1 50000U 70027C   22002.49919926  .00000000  00000-0  00000-0 0 14756
2 50000 004.0694 174.5488 8047637 074.8633 096.8766 00.44274799    01

# Worst residual: 9.01 km
# MJD 59582.000000 (2022 Jan  3  0:00)
1970-027C = NORAD 50000 = Vela 6 booster
1 50000U 70027C   22003.49919926  .00000000  00000-0  00000-0 0 14757
2 50000 004.0661 174.3223 8049466 075.1091 256.2513 00.44288116    04

# Worst residual: 10.75 km
# MJD 59583.000000 (2022 Jan  4  0:00)
1970-027C = NORAD 50000 = Vela 6 booster
1 50000U 70027C   22004.49919926  .00000000  00000-0  00000-0 0 14758
2 50000 004.0621 173.6886 8048524 075.7646 055.6435 00.44288997    04

# Worst residual: 4.51 km
# MJD 59584.000000 (2022 Jan  5  0:00)
1970-027C = NORAD 50000 = Vela 6 booster
1 50000U 70027C   22005.49919926  .00000000  00000-0  00000-0 0 14759
2 50000 004.0539 173.2374 8048802 076.2349 215.0670 00.44289281    05

# Worst residual: 5.99 km
# MJD 59585.000000 (2022 Jan  6  0:00)
1970-027C = NORAD 50000 = Vela 6 booster
1 50000U 70027C   22006.49919926  .00000000  00000-0  00000-0 0 14750
2 50000 004.0475 172.5806 8046135 076.9070 014.4445 00.44307520    09

# Worst residual: 2.24 km
# MJD 59586.000000 (2022 Jan  7  0:00)
1970-027C = NORAD 50000 = Vela 6 booster
1 50000U 70027C   22007.49919926  .00000000  00000-0  00000-0 0 14751
2 50000 004.0407 172.1471 8048704 077.3523 173.8763 00.44296393    08

# Worst residual: 6.05 km
# MJD 59587.000000 (2022 Jan  8  0:00)
1970-027C = NORAD 50000 = Vela 6 booster
1 50000U 70027C   22008.49919926  .00000000  00000-0  00000-0 0 14752
2 50000 004.0335 171.6032 8046566 077.9011 333.3138 00.44287101    03

# Worst residual: 5.39 km
# MJD 59588.000000 (2022 Jan  9  0:00)
1970-027C = NORAD 50000 = Vela 6 booster
1 50000U 70027C   22009.49919926  .00000000  00000-0  00000-0 0 14753
2 50000 004.0252 171.1062 8049439 078.4074 132.7108 00.44288739    02

# Worst residual: 9.58 km
# MJD 59589.000000 (2022 Jan 10  0:00)
1970-027C = NORAD 50000 = Vela 6 booster
1 50000U 70027C   22010.49919926  .00000000  00000-0  00000-0 0 14755
2 50000 004.0187 170.6988 8050620 078.8144 292.2019 00.44279852    05

# Worst residual: 7.14 km
# MJD 59590.000000 (2022 Jan 11  0:00)
1970-027C = NORAD 50000 = Vela 6 booster
1 50000U 70027C   22011.49919926  .00000000  00000-0  00000-0 0 14756
2 50000 004.0097 170.1038 8051507 079.4405 091.5797 00.44273657    08

# Worst residual: 3.85 km
# MJD 59591.000000 (2022 Jan 12  0:00)
1970-027C = NORAD 50000 = Vela 6 booster
1 50000U 70027C   22012.49919926  .00000000  00000-0  00000-0 0 14757
2 50000 003.9983 169.3293 8055046 080.2263 250.9687 00.44284159    05

# Worst residual: 11.25 km
# MJD 59592.000000 (2022 Jan 13  0:00)
1970-027C = NORAD 50000 = Vela 6 booster
1 50000U 70027C   22013.49919926  .00000000  00000-0  00000-0 0 14758
2 50000 003.9974 168.6666 8056761 080.9202 050.3798 00.44273627    09

# Worst residual: 3.12 km
# MJD 59593.000000 (2022 Jan 14  0:00)
1970-027C = NORAD 50000 = Vela 6 booster
1 50000U 70027C   22014.49919926  .00000000  00000-0  00000-0 0 14759
2 50000 003.9834 167.8073 8056272 081.7979 209.7859 00.44279579    04

# Worst residual: 14.80 km
# MJD 59594.000000 (2022 Jan 15  0:00)
1970-027C = NORAD 50000 = Vela 6 booster
1 50000U 70027C   22015.49919926  .00000000  00000-0  00000-0 0 14750
2 50000 003.9876 166.7584 8056793 082.8687 009.1650 00.44277128    00

# Worst residual: 3.62 km
# MJD 59595.000000 (2022 Jan 16  0:00)
1970-027C = NORAD 50000 = Vela 6 booster
1 50000U 70027C   22016.49919926  .00000000  00000-0  00000-0 0 14751
2 50000 003.9863 166.3768 8056007 083.2668 168.6350 00.44290512    08

# Worst residual: 6.00 km
# MJD 59596.000000 (2022 Jan 17  0:00)
1970-027C = NORAD 50000 = Vela 6 booster
1 50000U 70027C   22017.49919926  .00000000  00000-0  00000-0 0 14752
2 50000 003.9870 165.4116 8053628 084.2400 328.0259 00.44286510    07

# Worst residual: 8.70 km
# MJD 59597.000000 (2022 Jan 18  0:00)
1970-027C = NORAD 50000 = Vela 6 booster
1 50000U 70027C   22018.49919926  .00000000  00000-0  00000-0 0 14753
2 50000 003.9920 165.0406 8054675 084.6270 127.4574 00.44290113    08

# Worst residual: 8.15 km
# MJD 59598.000000 (2022 Jan 19  0:00)
1970-027C = NORAD 50000 = Vela 6 booster
1 50000U 70027C   22019.49919926  .00000000  00000-0  00000-0 0 14754
2 50000 003.9901 164.6528 8055240 085.0246 286.9109 00.44297083    02

# Worst residual: 4.96 km
# MJD 59599.000000 (2022 Jan 20  0:00)
1970-027C = NORAD 50000 = Vela 6 booster
1 50000U 70027C   22020.49919926  .00000000  00000-0  00000-0 0 14756
2 50000 003.9905 164.1009 8055230 085.5887 086.3237 00.44283695    08

# Worst residual: 2.33 km
# MJD 59600.000000 (2022 Jan 21  0:00)
1970-027C = NORAD 50000 = Vela 6 booster
1 50000U 70027C   22021.49919926  .00000000  00000-0  00000-0 0 14757
2 50000 003.9885 163.7803 8058495 085.9199 245.7525 00.44295304    09

# Worst residual: 7.95 km
# MJD 59601.000000 (2022 Jan 22  0:00)
1970-027C = NORAD 50000 = Vela 6 booster
1 50000U 70027C   22022.49919926  .00000000  00000-0  00000-0 0 14758
2 50000 003.9853 163.2440 8057525 086.4722 045.1811 00.44299573    09

# Worst residual: 1.68 km
# MJD 59602.000000 (2022 Jan 23  0:00)
1970-027C = NORAD 50000 = Vela 6 booster
1 50000U 70027C   22023.49919926  .00000000  00000-0  00000-0 0 14759
2 50000 003.9822 162.7839 8059931 086.9537 204.5471 00.44288204    05

# Worst residual: 6.71 km
# MJD 59603.000000 (2022 Jan 24  0:00)
1970-027C = NORAD 50000 = Vela 6 booster
1 50000U 70027C   22024.49919926  .00000000  00000-0  00000-0 0 14750
2 50000 003.9807 162.2603 8059333 087.4972 003.9596 00.44295775    07

# Worst residual: 2.29 km
# MJD 59604.000000 (2022 Jan 25  0:00)
1970-027C = NORAD 50000 = Vela 6 booster
1 50000U 70027C   22025.49919926  .00000000  00000-0  00000-0 0 14751
2 50000 003.9800 161.8745 8060794 087.9029 163.3557 00.44286982    01

# Worst residual: 9.21 km
# MJD 59605.000000 (2022 Jan 26  0:00)
1970-027C = NORAD 50000 = Vela 6 booster
1 50000U 70027C   22026.49919926  .00000000  00000-0  00000-0 0 14752
2 50000 003.9786 161.5264 8060086 088.2626 322.7690 00.44275875    06

# Worst residual: 4.33 km
# MJD 59606.000000 (2022 Jan 27  0:00)
1970-027C = NORAD 50000 = Vela 6 booster
1 50000U 70027C   22027.49919926  .00000000  00000-0  00000-0 0 14753
2 50000 003.9827 161.1048 8060482 088.7118 122.1679 00.44282343    06

# Worst residual: 4.27 km
# MJD 59607.000000 (2022 Jan 28  0:00)
1970-027C = NORAD 50000 = Vela 6 booster
1 50000U 70027C   22028.49919926  .00000000  00000-0  00000-0 0 14754
2 50000 003.9817 161.0444 8061140 088.7912 281.5519 00.44285412    01
